{"spkid": "20163348", "covariance": {"elements": [{"label": "e", "value": ".4343778515126242", "title": "eccentricity", "units": null, "name": "e", "sigma": 3.47835767642856e-08}, {"title": "perihelion distance", "value": ".4957398536062574", "units": "au", "name": "q", "sigma": 3.05543650534415e-08, "label": "q"}, {"name": "tp", "sigma": 7.57061590155682e-06, "title": "time of perihelion passage", "value": "2458930.764716742042", "units": "TDB", "label": "tp"}, {"label": "node", "sigma": 1.13200021774892e-05, "name": "om", "value": "259.4938720135694", "title": "longitude of the ascending node", "units": "deg"}, {"label": "peri", "sigma": 1.14273326343889e-05, "name": "w", "units": "deg", "value": "222.2357351793242", "title": "argument of perihelion"}, {"label": "i", "name": "i", "sigma": 3.05700076686158e-06, "units": "deg", "title": "inclination", "value": "5.415032233535541"}], "data": [["1.209897212516946E-15", "-1.062458689117014E-15", "1.616931995597014E-13", "2.418032054343442E-14", "1.073075739063624E-14", "2.655265466617445E-14", "-5.055614913058896E-23"], ["-1.062458689117014E-15", "9.335692238189674E-16", "-1.400991410850513E-13", "-2.154624933539983E-14", "-7.668410373234777E-15", "-2.35432767787604E-14", "4.689148977259759E-23"], ["1.616931995597014E-13", "-1.400991410850513E-13", "5.731422512890497E-11", "1.177740283142071E-11", "1.770128585183732E-11", "5.020579890817118E-12", "3.748977607403264E-21"], ["2.418032054343442E-14", "-2.154624933539983E-14", "1.177740283142071E-11", "1.281424492983593E-10", "-1.196168664491393E-10", "1.727400133333988E-11", "-1.060833395480268E-22"], ["1.073075739063624E-14", "-7.668410373234777E-15", "1.770128585183732E-11", "-1.196168664491393E-10", "1.305839311369688E-10", "-1.526669727062069E-11", "7.057210957083215E-21"], ["2.655265466617445E-14", "-2.35432767787604E-14", "5.020579890817118E-12", "1.727400133333988E-11", "-1.526669727062069E-11", "9.345253688592283E-12", "-1.280956905710067E-21"], ["-5.055614913058896E-23", "4.689148977259759E-23", "3.748977607403264E-21", "-1.060833395480268E-22", "7.057210957083215E-21", "-1.280956905710067E-21", "1.587857846844782E-29"]], "labels": ["e", "q", "tp", "node", "peri", "i", "A2"], "epoch": "2458801.5"}, "elements": [{"sigma": "3.4717E-8", "name": "e", "units": null, "title": "eccentricity", "value": ".4345768903161076", "label": "e"}, {"label": "a", "name": "a", "sigma": "2.5203E-9", "title": "semi-major axis", "value": ".8757930785090566", "units": "au"}, {"name": "q", "sigma": "3.0794E-8", "units": "au", "value": ".4951936458902201", "title": "perihelion distance", "label": "q"}, {"label": "i", "units": "deg", "value": "5.419501786861168", "title": "inclination; angle with respect to x-y ecliptic plane", "sigma": "3.0658E-6", "name": "i"}, {"sigma": "1.1316E-5", "name": "om", "title": "longitude of the ascending node", "value": "259.4071182403415", "units": "deg", "label": "node"}, {"label": "peri", "name": "w", "sigma": "1.1388E-5", "units": "deg", "title": "argument of perihelion", "value": "222.2094128961415"}, {"sigma": "1.3164E-5", "name": "ma", "units": "deg", "title": "mean anomaly", "value": "209.3303783849319", "label": "M"}, {"label": "tp", "units": "TDB", "title": "time of perihelion passage", "value": "2461325.792157168199", "sigma": "1.1343E-5", "name": "tp"}, {"value": "299.3647697329909", "title": "sidereal orbital period", "units": "d", "sigma": "1.2922E-6", "name": "per", "label": "period"}, {"value": "1.202546312717728", "title": "mean motion", "units": "deg/d", "sigma": "5.1909E-9", "name": "n", "label": "n"}, {"label": "Q", "value": "1.256392511127893", "title": "aphelion distance", "units": "au", "name": "ad", "sigma": "3.6156E-9"}], "epoch": "2461200.5"}